ONEWEB-0555             
1 56057U 23043M   24198.51530066 -.00000005  00000+0 -46971-4 0  9992
2 56057  87.9106   8.2658 0002127 110.9370 249.1988 13.16593717 66767
ONEWEB-0557             
1 56058U 23043N   24198.52954961  .00000083  00000+0  18409-3 0  9996
2 56058  87.9106   8.2884 0002603 110.5648 249.5762 13.16593243 66760
ONEWEB-0558             
1 56059U 23043P   24198.56957892  .00000003  00000+0 -23291-4 0  9996
2 56059  87.9280  23.4529 0001581  74.4909 285.6399 13.21824196 66599
ONEWEB-0559             
1 56060U 23043Q   24198.55853716  .00000055  00000+0  10172-3 0  9996
2 56060  87.9278  23.4525 0002119  73.7535 286.3832 13.21826860 65699
ONEWEB-0566             
1 56061U 23043R   24198.55221509 -.00000297  00000+0 -75139-3 0  9990
2 56061  87.9278  23.4542 0001594  66.1128 294.0173 13.21825289 65675
ONEWEB-0568             
1 56062U 23043S   24198.54696626  .00000136  00000+0  32176-3 0  9990
2 56062  87.9108   8.2496 0001809 102.6880 257.4453 13.16594207 66781
ONEWEB-0574             
1 56063U 23043T   24198.54591616  .00000096  00000+0  20103-3 0  9996
2 56063  87.9275  23.4493 0001685  90.0467 270.0860 13.21824845 65711
ONEWEB-0575             
1 56064U 23043U   24198.46463198  .00000124  00000+0  29193-3 0  9991
2 56064  87.9107   8.2753 0002344  99.1199 261.0197 13.16593568 66769
ONEWEB-0576             
1 56065U 23043V   24198.52163362  .00000078  00000+0  17095-3 0  9995
2 56065  87.9105   8.2604 0001969 103.7076 256.4274 13.16593702 66765
ONEWEB-0577             
1 56066U 23043W   24198.52796262  .00000073  00000+0  15607-3 0  9999
2 56066  87.9105   8.2586 0002601  98.7896 261.3530 13.16593777 66797
ONEWEB-0578             
1 56067U 23043X   24198.53329642  .00000089  00000+0  18303-3 0  9998
2 56067  87.9278  23.4512 0001814  93.6456 266.4886 13.21824339 65671
ONEWEB-0579             
1 56068U 23043Y   24198.59953972  .00000155  00000+0  34496-3 0  9999
2 56068  87.9274  23.4348 0002004  78.0847 282.0512 13.21826328 65690
ONEWEB-0581             
1 56069U 23043Z   24198.53429266  .00000142  00000+0  33898-3 0  9999
2 56069  87.9106   8.2873 0002389  90.2013 269.9392 13.16593818 66764
ONEWEB-0609             
1 56070U 23043AA  24198.61970539  .00000152  00000+0  36921-3 0  9995
2 56070  87.9019  38.6277 0001703  84.0378 276.0946 13.15547699 64327
ONEWEB-0613             
1 56071U 23043AB  24198.61495122  .00000125  00000+0  29840-3 0  9998
2 56071  87.9023  38.6258 0001820  75.1946 284.9386 13.15547166 64329
ONEWEB-0630             
1 56072U 23043AC  24198.61020199  .00000060  00000+0  12538-3 0  9991
2 56072  87.9019  38.6166 0001707  73.1390 286.9928 13.15547795 64319
ONEWEB-0632             
1 56073U 23043AD  24198.60544808  .00000032  00000+0  50795-4 0  9996
2 56073  87.9019  38.6364 0002141  83.5267 276.6107 13.15549135 64316
ONEWEB-0633             
1 56074U 23043AE  24198.59909865 -.00000050  00000+0 -16711-3 0  9994
2 56074  87.9015  38.6182 0001537  68.0354 292.0940 13.15547535 64290
ONEWEB-0634             
1 56075U 23043AF  24198.58484222 -.00000129  00000+0 -37792-3 0  9998
2 56075  87.9023  38.6339 0001431  89.7371 270.3923 13.15549498 64285
ONEWEB-0635             
1 56076U 23043AG  24198.58009152 -.00000108  00000+0 -32029-3 0  9999
2 56076  87.9020  38.6889 0002207  84.8027 275.3356 13.15547614 64316
ONEWEB-0636             
1 56077U 23043AH  24198.57217337 -.00000051  00000+0 -16846-3 0  9991
2 56077  87.9021  38.6604 0002166  85.0877 275.0500 13.15548884 65200
ONEWEB-0637             
1 56078U 23043AJ  24198.64188881  .00000136  00000+0  32669-3 0  9994
2 56078  87.9023  38.6235 0002194  87.6852 272.4530 13.15548656 65239
ONEWEB-0647             
1 56079U 23043AK  24198.63712997 -.00000007  00000+0 -53880-4 0  9993
2 56079  87.9020  38.6422 0001993  79.9553 280.1802 13.15548342 64311
ONEWEB-0651             
1 56080U 23043AL  24198.55632043  .00000147  00000+0  35511-3 0  9992
2 56080  87.9024  38.6360 0002160  90.8217 269.3161 13.15548499 65506
ONEWEB-0718             
1 56081U 23043AM  24198.55157722  .00000166  00000+0  40818-3 0  9996
2 56081  87.9023  38.6231 0001275  97.8134 262.3141 13.15548922 64314
ONEWEB-0561             
1 56710U 23068A   24198.59897219  .00000038  00000+0  60527-4 0  9996
2 56710  87.9200  53.8567 0002505  80.4963 279.6453 13.20771527 57028
ONEWEB-0668             
1 56711U 23068B   24198.53666253  .00000235  00000+0  58028-3 0  9994
2 56711  87.9098   8.2662 0001524 112.1897 247.9396 13.16592826 59588
ONEWEB-0676             
1 56712U 23068C   24198.51687826  .00000046  00000+0  86595-4 0  9993
2 56712  87.9105   8.2778 0002386  88.4149 271.7255 13.16595707 59500
ONEWEB-0677             
1 56713U 23068D   24198.58794301 -.00001353  00000+0 -33594-2 0  9991
2 56713  87.9181  53.8511 0002094  90.6991 269.4382 13.20781216 57322
ONEWEB-0678             
1 56714U 23068E   24198.59593449 -.00000044  00000+0 -15200-3 0  9994
2 56714  87.9022  38.5792 0001884  75.8535 284.2804 13.15548323 57174
ONEWEB-0679             
1 56715U 23068F   24198.48600636  .00000036  00000+0  60230-4 0  9993
2 56715  87.9102   8.2866 0002208 109.7259 250.4110 13.16592991 59528
ONEWEB-0680             
1 56716U 23068G   24198.60268126  .00000185  00000+0  41527-3 0  9994
2 56716  87.9278  23.4822 0001552 116.2298 243.8995 13.21824350 58542
ONEWEB-0681             
1 56717U 23068H   24198.53724606  .00000113  00000+0  24152-3 0  9993
2 56717  87.9276  23.4746 0003031  87.2639 272.8842 13.21828015 58529
ONEWEB-0682             
1 56718U 23068J   24198.62207647  .00000188  00000+0  46604-3 0  9993
2 56718  87.9022  38.6151 0001730 105.5718 254.5604 13.15546866 57349
ONEWEB-0683             
1 56719U 23068K   24198.56741476  .00000011  00000+0 -36449-5 0  9994
2 56719  87.9021  38.5983 0001686  96.5158 263.6164 13.15547545 57301
ONEWEB-0684             
1 56720U 23068L   24198.57533670 -.00000042  00000+0 -14578-3 0  9994
2 56720  87.9021  38.6734 0001738  34.3456 325.7787 13.15547498 57136
ONEWEB-0686             
1 56721U 23068M   24198.55171024  .00000191  00000+0  46608-3 0  9996
2 56721  87.9103   8.3101 0001615  89.8207 270.3109 13.16594132 59529
ONEWEB-0694             
1 56722U 23068N   24198.51135076  .00000024  00000+0  28812-4 0  9993
2 56722  87.9102   8.2366 0001758 107.3380 252.7943 13.16596057 59570
ONEWEB-0696             
1 56723U 23068P   24198.60861801  .00000048  00000+0  93208-4 0  9993
2 56723  87.9021  38.6408 0001937  79.6000 280.5349 13.15548237 57252
ONEWEB-0703             
1 56724U 23068Q   24198.61812308  .00000112  00000+0  26243-3 0  9999
2 56724  87.9020  38.6596 0002708  63.6478 296.4930 13.15547318 57148
ONEWEB-0721             
1 56725U 23068R   24198.42370014  .00003916  00000+0  45172-3 0  9999
2 56725  86.6786 323.8544 0011517 156.7657 203.4091 14.85364737 62857
